<?xml version='1.0' encoding='utf-8'?>
<TrainingCenterDatabase xmlns:ext="http://www.garmin.com/xmlschemas/ActivityExtension/v2" xmlns:xsi="http://www.w3.org/2001/XMLSchema-instance" xsi:schemaLocation="http://www.garmin.com/xmlschemas/TrainingCenterDatabase/v2 http://www.garmin.com/xmlschemas/TrainingCenterDatabasev2.xsd"><Activities><Activity Sport="Other"><Id>2025-08-23T14:29:09.614Z</Id><Notes>SkiErg Intervalltraining</Notes><Lap StartTime="2025-08-23T14:29:09.614Z"><TotalTimeSeconds>5</TotalTimeSeconds><DistanceMeters>0</DistanceMeters><Calories>0</Calories><Intensity>Active</Intensity><TriggerMethod>Manual</TriggerMethod><Track><Trackpoint><Time>2025-08-23T14:29:09.614Z</Time><DistanceMeters>0.006177987829363975</DistanceMeters><HeartRateBpm><Value>69</Value></HeartRateBpm><Cadence>22</Cadence><Extensions><ext:TPX><ext:Watts>0.06818181818181818</ext:Watts><ext:Torque>20</ext:Torque></ext:TPX></Extensions></Trackpoint><Trackpoint><Time>2025-08-23T14:29:11.954Z</Time><DistanceMeters>0.2026079254059975</DistanceMeters><HeartRateBpm><Value>68</Value></HeartRateBpm><Cadence>14</Cadence><Extensions><ext:TPX><ext:Watts>1.3970588235294117</ext:Watts><ext:Torque>35</ext:Torque></ext:TPX></Extensions></Trackpoint><Trackpoint><Time>2025-08-23T14:29:17.539Z</Time><DistanceMeters>0.9059718397790861</DistanceMeters><HeartRateBpm><Value>65</Value></HeartRateBpm><Cadence>25</Cadence><Extensions><ext:TPX><ext:Watts>8.625</ext:Watts><ext:Torque>20</ext:Torque></ext:TPX></Extensions></Trackpoint><Trackpoint><Time>2025-08-23T14:29:18.799Z</Time><DistanceMeters>3.4422564861554754</DistanceMeters><HeartRateBpm><Value>65</Value></HeartRateBpm><Cadence>24</Cadence><Extensions><ext:TPX><ext:Watts>29.857142857142858</ext:Watts><ext:Torque>20</ext:Torque></ext:TPX></Extensions></Trackpoint><Trackpoint><Time>2025-08-23T14:29:38.364Z</Time><DistanceMeters>3.450314731150298</DistanceMeters><HeartRateBpm><Value>64</Value></HeartRateBpm><Cadence>4</Cadence><Extensions><ext:TPX><ext:Watts>0.015810276679841896</ext:Watts><ext:Torque>20</ext:Torque></ext:TPX></Extensions></Trackpoint></Track></Lap></Activity></Activities></TrainingCenterDatabase>