<?xml version='1.0' encoding='utf-8'?>
<TrainingCenterDatabase xmlns:ext="http://www.garmin.com/xmlschemas/ActivityExtension/v2" xmlns:xsi="http://www.w3.org/2001/XMLSchema-instance" xsi:schemaLocation="http://www.garmin.com/xmlschemas/TrainingCenterDatabase/v2 http://www.garmin.com/xmlschemas/TrainingCenterDatabasev2.xsd"><Activities><Activity Sport="Other"><Id>2025-08-23T13:48:39.551Z</Id><Notes>SkiErg Intervalltraining</Notes><Lap StartTime="2025-08-23T13:48:39.551Z"><TotalTimeSeconds>18</TotalTimeSeconds><DistanceMeters>0</DistanceMeters><Calories>0</Calories><Intensity>Active</Intensity><TriggerMethod>Manual</TriggerMethod><Track><Trackpoint><Time>2025-08-23T13:48:39.551Z</Time><DistanceMeters>0.02043845597684323</DistanceMeters><HeartRateBpm><Value>65</Value></HeartRateBpm><Cadence>10</Cadence><Extensions><ext:TPX><ext:Watts>0.10526315789473684</ext:Watts><ext:Torque>20</ext:Torque></ext:TPX></Extensions></Trackpoint><Trackpoint><Time>2025-08-23T13:48:42.766Z</Time><DistanceMeters>0.22491942355648706</DistanceMeters><HeartRateBpm><Value>64</Value></HeartRateBpm><Cadence>26</Cadence><Extensions><ext:TPX><ext:Watts>2.6578947368421053</ext:Watts><ext:Torque>20</ext:Torque></ext:TPX></Extensions></Trackpoint><Trackpoint><Time>2025-08-23T13:48:43.636Z</Time><DistanceMeters>0.24331403393564596</DistanceMeters><HeartRateBpm><Value>64</Value></HeartRateBpm><Cadence>66</Cadence><Extensions><ext:TPX><ext:Watts>0.6</ext:Watts><ext:Torque>61</ext:Torque></ext:TPX></Extensions></Trackpoint><Trackpoint><Time>2025-08-23T13:48:45.016Z</Time><DistanceMeters>1.6512580954729024</DistanceMeters><HeartRateBpm><Value>65</Value></HeartRateBpm><Cadence>22</Cadence><Extensions><ext:TPX><ext:Watts>14.847826086956522</ext:Watts><ext:Torque>20</ext:Torque></ext:TPX></Extensions></Trackpoint><Trackpoint><Time>2025-08-23T13:48:46.216Z</Time><DistanceMeters>2.627812631660466</DistanceMeters><HeartRateBpm><Value>65</Value></HeartRateBpm><Cadence>25</Cadence><Extensions><ext:TPX><ext:Watts>11.975</ext:Watts><ext:Torque>20</ext:Torque></ext:TPX></Extensions></Trackpoint><Trackpoint><Time>2025-08-23T13:48:47.482Z</Time><DistanceMeters>3.6027704678324346</DistanceMeters><HeartRateBpm><Value>65</Value></HeartRateBpm><Cadence>24</Cadence><Extensions><ext:TPX><ext:Watts>11.238095238095237</ext:Watts><ext:Torque>78</ext:Torque></ext:TPX></Extensions></Trackpoint><Trackpoint><Time>2025-08-23T13:48:48.292Z</Time><DistanceMeters>3.612953964254463</DistanceMeters><HeartRateBpm><Value>64</Value></HeartRateBpm><Cadence>72</Cadence><Extensions><ext:TPX><ext:Watts>0.35714285714285715</ext:Watts><ext:Torque>74</ext:Torque></ext:TPX></Extensions></Trackpoint><Trackpoint><Time>2025-08-23T13:48:49.671Z</Time><DistanceMeters>4.686715109814571</DistanceMeters><HeartRateBpm><Value>64</Value></HeartRateBpm><Cadence>22</Cadence><Extensions><ext:TPX><ext:Watts>11.58695652173913</ext:Watts><ext:Torque>20</ext:Torque></ext:TPX></Extensions></Trackpoint><Trackpoint><Time>2025-08-23T13:48:50.812Z</Time><DistanceMeters>5.664579538933066</DistanceMeters><HeartRateBpm><Value>64</Value></HeartRateBpm><Cadence>26</Cadence><Extensions><ext:TPX><ext:Watts>12.710526315789474</ext:Watts><ext:Torque>20</ext:Torque></ext:TPX></Extensions></Trackpoint><Trackpoint><Time>2025-08-23T13:48:52.011Z</Time><DistanceMeters>6.763458234142036</DistanceMeters><HeartRateBpm><Value>64</Value></HeartRateBpm><Cadence>25</Cadence><Extensions><ext:TPX><ext:Watts>13.475</ext:Watts><ext:Torque>20</ext:Torque></ext:TPX></Extensions></Trackpoint><Trackpoint><Time>2025-08-23T13:48:53.272Z</Time><DistanceMeters>7.906202113888974</DistanceMeters><HeartRateBpm><Value>65</Value></HeartRateBpm><Cadence>24</Cadence><Extensions><ext:TPX><ext:Watts>13.452380952380953</ext:Watts><ext:Torque>20</ext:Torque></ext:TPX></Extensions></Trackpoint><Trackpoint><Time>2025-08-23T13:48:55.011Z</Time><DistanceMeters>9.189701910517527</DistanceMeters><HeartRateBpm><Value>66</Value></HeartRateBpm><Cadence>18</Cadence><Extensions><ext:TPX><ext:Watts>11.017241379310345</ext:Watts><ext:Torque>20</ext:Torque></ext:TPX></Extensions></Trackpoint><Trackpoint><Time>2025-08-23T13:48:55.887Z</Time><DistanceMeters>9.36338732900634</DistanceMeters><HeartRateBpm><Value>67</Value></HeartRateBpm><Cadence>34</Cadence><Extensions><ext:TPX><ext:Watts>2.896551724137931</ext:Watts><ext:Torque>20</ext:Torque></ext:TPX></Extensions></Trackpoint><Trackpoint><Time>2025-08-23T13:48:59.456Z</Time><DistanceMeters>10.041959207034555</DistanceMeters><HeartRateBpm><Value>69</Value></HeartRateBpm><Cadence>12</Cadence><Extensions><ext:TPX><ext:Watts>4.160493827160494</ext:Watts><ext:Torque>20</ext:Torque></ext:TPX></Extensions></Trackpoint><Trackpoint><Time>2025-08-23T13:49:00.026Z</Time><DistanceMeters>10.174809170884036</DistanceMeters><HeartRateBpm><Value>69</Value></HeartRateBpm><Cadence>52</Cadence><Extensions><ext:TPX><ext:Watts>3.4210526315789473</ext:Watts><ext:Torque>20</ext:Torque></ext:TPX></Extensions></Trackpoint><Trackpoint><Time>2025-08-23T13:49:01.796Z</Time><DistanceMeters>11.317151765932731</DistanceMeters><HeartRateBpm><Value>69</Value></HeartRateBpm><Cadence>17</Cadence><Extensions><ext:TPX><ext:Watts>9.525423728813559</ext:Watts><ext:Torque>20</ext:Torque></ext:TPX></Extensions></Trackpoint><Trackpoint><Time>2025-08-23T13:49:02.337Z</Time><DistanceMeters>11.431435264517964</DistanceMeters><HeartRateBpm><Value>68</Value></HeartRateBpm><Cadence>56</Cadence><Extensions><ext:TPX><ext:Watts>3.111111111111111</ext:Watts><ext:Torque>20</ext:Torque></ext:TPX></Extensions></Trackpoint><Trackpoint><Time>2025-08-23T13:49:04.856Z</Time><DistanceMeters>12.329056876770188</DistanceMeters><HeartRateBpm><Value>67</Value></HeartRateBpm><Cadence>13</Cadence><Extensions><ext:TPX><ext:Watts>5.723684210526316</ext:Watts><ext:Torque>20</ext:Torque></ext:TPX></Extensions></Trackpoint></Track></Lap></Activity></Activities></TrainingCenterDatabase>