<?xml version='1.0' encoding='utf-8'?>
<TrainingCenterDatabase xmlns:ext="http://www.garmin.com/xmlschemas/ActivityExtension/v2" xmlns:xsi="http://www.w3.org/2001/XMLSchema-instance" xsi:schemaLocation="http://www.garmin.com/xmlschemas/TrainingCenterDatabase/v2 http://www.garmin.com/xmlschemas/TrainingCenterDatabasev2.xsd"><Activities><Activity Sport="Other"><Id>2025-08-23T14:46:33.669Z</Id><Notes>SkiErg Intervalltraining</Notes><Lap StartTime="2025-08-23T14:46:33.669Z"><TotalTimeSeconds>1</TotalTimeSeconds><DistanceMeters>0</DistanceMeters><Calories>0</Calories><Intensity>Active</Intensity><TriggerMethod>Manual</TriggerMethod><Track><Trackpoint><Time>2025-08-23T14:46:33.669Z</Time><DistanceMeters>0.019053607324206655</DistanceMeters><HeartRateBpm><Value>73</Value></HeartRateBpm><Cadence>8</Cadence><Extensions><ext:TPX><ext:Watts>0.07476635514018691</ext:Watts><ext:Torque>20</ext:Torque></ext:TPX></Extensions></Trackpoint></Track></Lap></Activity></Activities></TrainingCenterDatabase>