<?xml version='1.0' encoding='utf-8'?>
<TrainingCenterDatabase xmlns:ext="http://www.garmin.com/xmlschemas/ActivityExtension/v2" xmlns:xsi="http://www.w3.org/2001/XMLSchema-instance" xsi:schemaLocation="http://www.garmin.com/xmlschemas/TrainingCenterDatabase/v2 http://www.garmin.com/xmlschemas/TrainingCenterDatabasev2.xsd"><Activities><Activity Sport="Rowing"><Id>2026-05-04T08:30:34.573Z</Id><Notes>SkiErg Intervalltraining</Notes><Lap StartTime="2026-05-04T08:30:34.573Z"><TotalTimeSeconds>15</TotalTimeSeconds><DistanceMeters>17.648009795926725</DistanceMeters><Calories>0</Calories><Intensity>Active</Intensity><TriggerMethod>Manual</TriggerMethod><Track><Trackpoint><Time>2026-05-04T08:30:34.573Z</Time><DistanceMeters>0.0</DistanceMeters><Cadence>75</Cadence><Extensions><ext:TPX><ext:Torque>20.0</ext:Torque></ext:TPX></Extensions></Trackpoint><Trackpoint><Time>2026-05-04T08:30:37.388Z</Time><DistanceMeters>0.8462677668147636</DistanceMeters><Cadence>23</Cadence><Extensions><ext:TPX><ext:Watts>4.77</ext:Watts><ext:Torque>20.0</ext:Torque></ext:TPX></Extensions></Trackpoint><Trackpoint><Time>2026-05-04T08:30:40.303Z</Time><DistanceMeters>1.9409585166779273</DistanceMeters><Cadence>21</Cadence><Extensions><ext:TPX><ext:Watts>5.64</ext:Watts><ext:Torque>20.0</ext:Torque></ext:TPX></Extensions></Trackpoint><Trackpoint><Time>2026-05-04T08:30:41.568Z</Time><DistanceMeters>3.1138823677200684</DistanceMeters><Cadence>47</Cadence><Extensions><ext:TPX><ext:Watts>13.52</ext:Watts><ext:Torque>20.0</ext:Torque></ext:TPX></Extensions></Trackpoint><Trackpoint><Time>2026-05-04T08:30:42.483Z</Time><DistanceMeters>4.809396805334404</DistanceMeters><Cadence>66</Cadence><Extensions><ext:TPX><ext:Watts>27.44</ext:Watts><ext:Torque>20.0</ext:Torque></ext:TPX></Extensions></Trackpoint><Trackpoint><Time>2026-05-04T08:30:43.798Z</Time><DistanceMeters>6.456068176776418</DistanceMeters><Cadence>46</Cadence><Extensions><ext:TPX><ext:Watts>18.58</ext:Watts><ext:Torque>20.0</ext:Torque></ext:TPX></Extensions></Trackpoint><Trackpoint><Time>2026-05-04T08:30:46.599Z</Time><DistanceMeters>6.456068176776418</DistanceMeters><Cadence>21</Cadence><Extensions><ext:TPX><ext:Torque>20.0</ext:Torque></ext:TPX></Extensions></Trackpoint><Trackpoint><Time>2026-05-04T08:30:50.263Z</Time><DistanceMeters>6.6445814355422845</DistanceMeters><Cadence>16</Cadence><Extensions><ext:TPX><ext:Watts>0.74</ext:Watts><ext:Torque>20.0</ext:Torque></ext:TPX></Extensions></Trackpoint><Trackpoint><Time>2026-05-04T08:30:51.783Z</Time><DistanceMeters>8.240720034738988</DistanceMeters><Cadence>39</Cadence><Extensions><ext:TPX><ext:Watts>15.27</ext:Watts><ext:Torque>20.0</ext:Torque></ext:TPX></Extensions></Trackpoint><Trackpoint><Time>2026-05-04T08:30:52.903Z</Time><DistanceMeters>10.063226444401362</DistanceMeters><Cadence>54</Cadence><Extensions><ext:TPX><ext:Watts>24.14</ext:Watts><ext:Torque>20.0</ext:Torque></ext:TPX></Extensions></Trackpoint><Trackpoint><Time>2026-05-04T08:30:54.023Z</Time><DistanceMeters>11.961241594200406</DistanceMeters><Cadence>54</Cadence><Extensions><ext:TPX><ext:Watts>25.14</ext:Watts><ext:Torque>20.0</ext:Torque></ext:TPX></Extensions></Trackpoint><Trackpoint><Time>2026-05-04T08:30:55.189Z</Time><DistanceMeters>13.91133688294747</DistanceMeters><Cadence>51</Cadence><Extensions><ext:TPX><ext:Watts>24.39</ext:Watts><ext:Torque>20.0</ext:Torque></ext:TPX></Extensions></Trackpoint><Trackpoint><Time>2026-05-04T08:30:56.353Z</Time><DistanceMeters>15.936435836646345</DistanceMeters><Cadence>52</Cadence><Extensions><ext:TPX><ext:Watts>25.83</ext:Watts><ext:Torque>20.0</ext:Torque></ext:TPX></Extensions></Trackpoint><Trackpoint><Time>2026-05-04T08:30:57.969Z</Time><DistanceMeters>17.648009795926725</DistanceMeters><Cadence>37</Cadence><Extensions><ext:TPX><ext:Watts>15.53</ext:Watts><ext:Torque>20.0</ext:Torque></ext:TPX></Extensions></Trackpoint><Trackpoint><Time>2026-05-04T08:31:02.469Z</Time><DistanceMeters>17.648009795926725</DistanceMeters><Cadence>13</Cadence><Extensions><ext:TPX><ext:Torque>20.0</ext:Torque></ext:TPX></Extensions></Trackpoint></Track></Lap></Activity></Activities></TrainingCenterDatabase>