<?xml version='1.0' encoding='utf-8'?>
<TrainingCenterDatabase xmlns:ext="http://www.garmin.com/xmlschemas/ActivityExtension/v2" xmlns:xsi="http://www.w3.org/2001/XMLSchema-instance" xsi:schemaLocation="http://www.garmin.com/xmlschemas/TrainingCenterDatabase/v2 http://www.garmin.com/xmlschemas/TrainingCenterDatabasev2.xsd"><Activities><Activity Sport="Other"><Id>2025-08-23T14:33:08.070Z</Id><Notes>SkiErg Intervalltraining</Notes><Lap StartTime="2025-08-23T14:33:08.070Z"><TotalTimeSeconds>3</TotalTimeSeconds><DistanceMeters>0</DistanceMeters><Calories>0</Calories><Intensity>Active</Intensity><TriggerMethod>Manual</TriggerMethod><Track><Trackpoint><Time>2025-08-23T14:33:08.070Z</Time><DistanceMeters>0.1014801385609812</DistanceMeters><HeartRateBpm><Value>69</Value></HeartRateBpm><Cadence>24</Cadence><Extensions><ext:TPX><ext:Watts>1.2195121951219512</ext:Watts><ext:Torque>20</ext:Torque></ext:TPX></Extensions></Trackpoint><Trackpoint><Time>2025-08-23T14:33:12.150Z</Time><DistanceMeters>0.4519037105216264</DistanceMeters><HeartRateBpm><Value>66</Value></HeartRateBpm><Cadence>30</Cadence><Extensions><ext:TPX><ext:Watts>5.242424242424242</ext:Watts><ext:Torque>20</ext:Torque></ext:TPX></Extensions></Trackpoint><Trackpoint><Time>2025-08-23T14:33:15.367Z</Time><DistanceMeters>0.6734612600951282</DistanceMeters><HeartRateBpm><Value>67</Value></HeartRateBpm><Cadence>30</Cadence><Extensions><ext:TPX><ext:Watts>3.2058823529411766</ext:Watts><ext:Torque>38</ext:Torque></ext:TPX></Extensions></Trackpoint></Track></Lap></Activity></Activities></TrainingCenterDatabase>