<?xml version='1.0' encoding='utf-8'?>
<TrainingCenterDatabase xmlns:ext="http://www.garmin.com/xmlschemas/ActivityExtension/v2" xmlns:xsi="http://www.w3.org/2001/XMLSchema-instance" xsi:schemaLocation="http://www.garmin.com/xmlschemas/TrainingCenterDatabase/v2 http://www.garmin.com/xmlschemas/TrainingCenterDatabasev2.xsd"><Activities><Activity Sport="Other"><Id>2025-08-23T14:31:55.318Z</Id><Notes>SkiErg Intervalltraining</Notes><Lap StartTime="2025-08-23T14:31:55.318Z"><TotalTimeSeconds>7</TotalTimeSeconds><DistanceMeters>0</DistanceMeters><Calories>0</Calories><Intensity>Active</Intensity><TriggerMethod>Manual</TriggerMethod><Track><Trackpoint><Time>2025-08-23T14:31:55.318Z</Time><DistanceMeters>0.10112777696875555</DistanceMeters><HeartRateBpm><Value>66</Value></HeartRateBpm><Cadence>14</Cadence><Extensions><ext:TPX><ext:Watts>0.6944444444444444</ext:Watts><ext:Torque>20</ext:Torque></ext:TPX></Extensions></Trackpoint><Trackpoint><Time>2025-08-23T14:31:57.658Z</Time><DistanceMeters>0.10715954023411091</DistanceMeters><HeartRateBpm><Value>66</Value></HeartRateBpm><Cadence>13</Cadence><Extensions><ext:TPX><ext:Watts>0.038461538461538464</ext:Watts><ext:Torque>20</ext:Torque></ext:TPX></Extensions></Trackpoint><Trackpoint><Time>2025-08-23T14:31:59.969Z</Time><DistanceMeters>0.1907477155654055</DistanceMeters><HeartRateBpm><Value>66</Value></HeartRateBpm><Cadence>40</Cadence><Extensions><ext:TPX><ext:Watts>1.64</ext:Watts><ext:Torque>37</ext:Torque></ext:TPX></Extensions></Trackpoint><Trackpoint><Time>2025-08-23T14:32:02.554Z</Time><DistanceMeters>0.26637000267972544</DistanceMeters><HeartRateBpm><Value>67</Value></HeartRateBpm><Cadence>52</Cadence><Extensions><ext:TPX><ext:Watts>1.9473684210526316</ext:Watts><ext:Torque>43</ext:Torque></ext:TPX></Extensions></Trackpoint><Trackpoint><Time>2025-08-23T14:32:04.714Z</Time><DistanceMeters>0.3578387158064005</DistanceMeters><HeartRateBpm><Value>66</Value></HeartRateBpm><Cadence>59</Cadence><Extensions><ext:TPX><ext:Watts>2.6470588235294117</ext:Watts><ext:Torque>46</ext:Torque></ext:TPX></Extensions></Trackpoint><Trackpoint><Time>2025-08-23T14:32:05.674Z</Time><DistanceMeters>0.3619490706122273</DistanceMeters><HeartRateBpm><Value>66</Value></HeartRateBpm><Cadence>31</Cadence><Extensions><ext:TPX><ext:Watts>0.0625</ext:Watts><ext:Torque>20</ext:Torque></ext:TPX></Extensions></Trackpoint><Trackpoint><Time>2025-08-23T14:32:13.054Z</Time><DistanceMeters>0.3720618483091029</DistanceMeters><HeartRateBpm><Value>65</Value></HeartRateBpm><Cadence>21</Cadence><Extensions><ext:TPX><ext:Watts>0.10416666666666667</ext:Watts><ext:Torque>20</ext:Torque></ext:TPX></Extensions></Trackpoint></Track></Lap></Activity></Activities></TrainingCenterDatabase>