<?xml version='1.0' encoding='utf-8'?>
<TrainingCenterDatabase xmlns:ext="http://www.garmin.com/xmlschemas/ActivityExtension/v2" xmlns:xsi="http://www.w3.org/2001/XMLSchema-instance" xsi:schemaLocation="http://www.garmin.com/xmlschemas/TrainingCenterDatabase/v2 http://www.garmin.com/xmlschemas/TrainingCenterDatabasev2.xsd"><Activities><Activity Sport="Other"><Id>2025-08-23T13:51:10.159Z</Id><Notes>SkiErg Intervalltraining</Notes><Lap StartTime="2025-08-23T13:51:10.159Z"><TotalTimeSeconds>23</TotalTimeSeconds><DistanceMeters>0</DistanceMeters><Calories>0</Calories><Intensity>Active</Intensity><TriggerMethod>Manual</TriggerMethod><Track><Trackpoint><Time>2025-08-23T13:51:10.159Z</Time><DistanceMeters>0.1426110885142837</DistanceMeters><HeartRateBpm><Value>55</Value></HeartRateBpm><Cadence>14</Cadence><Extensions><ext:TPX><ext:Watts>1.0142857142857142</ext:Watts><ext:Torque>20</ext:Torque></ext:TPX></Extensions></Trackpoint><Trackpoint><Time>2025-08-23T13:51:11.629Z</Time><DistanceMeters>2.216865120700739</DistanceMeters><HeartRateBpm><Value>56</Value></HeartRateBpm><Cadence>20</Cadence><Extensions><ext:TPX><ext:Watts>20.857142857142858</ext:Watts><ext:Torque>32</ext:Torque></ext:TPX></Extensions></Trackpoint><Trackpoint><Time>2025-08-23T13:51:13.639Z</Time><DistanceMeters>6.2212713883170565</DistanceMeters><HeartRateBpm><Value>57</Value></HeartRateBpm><Cadence>24</Cadence><Extensions><ext:TPX><ext:Watts>48.1219512195122</ext:Watts><ext:Torque>35</ext:Torque></ext:TPX></Extensions></Trackpoint><Trackpoint><Time>2025-08-23T13:51:14.749Z</Time><DistanceMeters>10.247723936686018</DistanceMeters><HeartRateBpm><Value>57</Value></HeartRateBpm><Cadence>27</Cadence><Extensions><ext:TPX><ext:Watts>53.32432432432432</ext:Watts><ext:Torque>20</ext:Torque></ext:TPX></Extensions></Trackpoint><Trackpoint><Time>2025-08-23T13:51:15.919Z</Time><DistanceMeters>14.540447063731865</DistanceMeters><HeartRateBpm><Value>58</Value></HeartRateBpm><Cadence>26</Cadence><Extensions><ext:TPX><ext:Watts>53.69230769230769</ext:Watts><ext:Torque>20</ext:Torque></ext:TPX></Extensions></Trackpoint><Trackpoint><Time>2025-08-23T13:51:17.029Z</Time><DistanceMeters>18.891383117012467</DistanceMeters><HeartRateBpm><Value>58</Value></HeartRateBpm><Cadence>27</Cadence><Extensions><ext:TPX><ext:Watts>57.62162162162162</ext:Watts><ext:Torque>20</ext:Torque></ext:TPX></Extensions></Trackpoint><Trackpoint><Time>2025-08-23T13:51:18.199Z</Time><DistanceMeters>23.48750787863462</DistanceMeters><HeartRateBpm><Value>59</Value></HeartRateBpm><Cadence>26</Cadence><Extensions><ext:TPX><ext:Watts>57.48717948717949</ext:Watts><ext:Torque>20</ext:Torque></ext:TPX></Extensions></Trackpoint><Trackpoint><Time>2025-08-23T13:51:19.369Z</Time><DistanceMeters>27.825331248658024</DistanceMeters><HeartRateBpm><Value>59</Value></HeartRateBpm><Cadence>26</Cadence><Extensions><ext:TPX><ext:Watts>54.256410256410255</ext:Watts><ext:Torque>20</ext:Torque></ext:TPX></Extensions></Trackpoint><Trackpoint><Time>2025-08-23T13:51:20.509Z</Time><DistanceMeters>31.708445068635815</DistanceMeters><HeartRateBpm><Value>60</Value></HeartRateBpm><Cadence>26</Cadence><Extensions><ext:TPX><ext:Watts>50.473684210526315</ext:Watts><ext:Torque>20</ext:Torque></ext:TPX></Extensions></Trackpoint><Trackpoint><Time>2025-08-23T13:51:21.619Z</Time><DistanceMeters>35.873670436715415</DistanceMeters><HeartRateBpm><Value>61</Value></HeartRateBpm><Cadence>27</Cadence><Extensions><ext:TPX><ext:Watts>55.16216216216216</ext:Watts><ext:Torque>20</ext:Torque></ext:TPX></Extensions></Trackpoint><Trackpoint><Time>2025-08-23T13:51:22.729Z</Time><DistanceMeters>40.18583173154745</DistanceMeters><HeartRateBpm><Value>63</Value></HeartRateBpm><Cadence>27</Cadence><Extensions><ext:TPX><ext:Watts>57.108108108108105</ext:Watts><ext:Torque>20</ext:Torque></ext:TPX></Extensions></Trackpoint><Trackpoint><Time>2025-08-23T13:51:23.929Z</Time><DistanceMeters>44.63435364795927</DistanceMeters><HeartRateBpm><Value>65</Value></HeartRateBpm><Cadence>25</Cadence><Extensions><ext:TPX><ext:Watts>54.55</ext:Watts><ext:Torque>20</ext:Torque></ext:TPX></Extensions></Trackpoint><Trackpoint><Time>2025-08-23T13:51:25.069Z</Time><DistanceMeters>49.068148885577294</DistanceMeters><HeartRateBpm><Value>66</Value></HeartRateBpm><Cadence>26</Cadence><Extensions><ext:TPX><ext:Watts>57.63157894736842</ext:Watts><ext:Torque>20</ext:Torque></ext:TPX></Extensions></Trackpoint><Trackpoint><Time>2025-08-23T13:51:26.269Z</Time><DistanceMeters>53.263867540011546</DistanceMeters><HeartRateBpm><Value>70</Value></HeartRateBpm><Cadence>25</Cadence><Extensions><ext:TPX><ext:Watts>51.45</ext:Watts><ext:Torque>20</ext:Torque></ext:TPX></Extensions></Trackpoint><Trackpoint><Time>2025-08-23T13:51:27.439Z</Time><DistanceMeters>57.3372394853029</DistanceMeters><HeartRateBpm><Value>72</Value></HeartRateBpm><Cadence>26</Cadence><Extensions><ext:TPX><ext:Watts>50.94871794871795</ext:Watts><ext:Torque>20</ext:Torque></ext:TPX></Extensions></Trackpoint><Trackpoint><Time>2025-08-23T13:51:28.549Z</Time><DistanceMeters>61.29022407029564</DistanceMeters><HeartRateBpm><Value>73</Value></HeartRateBpm><Cadence>27</Cadence><Extensions><ext:TPX><ext:Watts>52.351351351351354</ext:Watts><ext:Torque>20</ext:Torque></ext:TPX></Extensions></Trackpoint><Trackpoint><Time>2025-08-23T13:51:29.735Z</Time><DistanceMeters>65.3697460487203</DistanceMeters><HeartRateBpm><Value>75</Value></HeartRateBpm><Cadence>26</Cadence><Extensions><ext:TPX><ext:Watts>51.02564102564103</ext:Watts><ext:Torque>20</ext:Torque></ext:TPX></Extensions></Trackpoint><Trackpoint><Time>2025-08-23T13:51:30.844Z</Time><DistanceMeters>69.49619665835134</DistanceMeters><HeartRateBpm><Value>77</Value></HeartRateBpm><Cadence>27</Cadence><Extensions><ext:TPX><ext:Watts>54.648648648648646</ext:Watts><ext:Torque>20</ext:Torque></ext:TPX></Extensions></Trackpoint><Trackpoint><Time>2025-08-23T13:51:31.954Z</Time><DistanceMeters>73.5185676531994</DistanceMeters><HeartRateBpm><Value>79</Value></HeartRateBpm><Cadence>27</Cadence><Extensions><ext:TPX><ext:Watts>53.270270270270274</ext:Watts><ext:Torque>20</ext:Torque></ext:TPX></Extensions></Trackpoint><Trackpoint><Time>2025-08-23T13:51:33.094Z</Time><DistanceMeters>77.47861490652399</DistanceMeters><HeartRateBpm><Value>80</Value></HeartRateBpm><Cadence>26</Cadence><Extensions><ext:TPX><ext:Watts>51.473684210526315</ext:Watts><ext:Torque>20</ext:Torque></ext:TPX></Extensions></Trackpoint><Trackpoint><Time>2025-08-23T13:51:34.234Z</Time><DistanceMeters>81.59252902654217</DistanceMeters><HeartRateBpm><Value>82</Value></HeartRateBpm><Cadence>26</Cadence><Extensions><ext:TPX><ext:Watts>53.473684210526315</ext:Watts><ext:Torque>20</ext:Torque></ext:TPX></Extensions></Trackpoint><Trackpoint><Time>2025-08-23T13:51:35.344Z</Time><DistanceMeters>85.76999905518447</DistanceMeters><HeartRateBpm><Value>85</Value></HeartRateBpm><Cadence>27</Cadence><Extensions><ext:TPX><ext:Watts>55.32432432432432</ext:Watts><ext:Torque>20</ext:Torque></ext:TPX></Extensions></Trackpoint><Trackpoint><Time>2025-08-23T13:51:36.514Z</Time><DistanceMeters>89.80442079063157</DistanceMeters><HeartRateBpm><Value>86</Value></HeartRateBpm><Cadence>26</Cadence><Extensions><ext:TPX><ext:Watts>50.46153846153846</ext:Watts><ext:Torque>20</ext:Torque></ext:TPX></Extensions></Trackpoint></Track></Lap></Activity></Activities></TrainingCenterDatabase>