<?xml version='1.0' encoding='utf-8'?>
<TrainingCenterDatabase xmlns:ext="http://www.garmin.com/xmlschemas/ActivityExtension/v2" xmlns:xsi="http://www.w3.org/2001/XMLSchema-instance" xsi:schemaLocation="http://www.garmin.com/xmlschemas/TrainingCenterDatabase/v2 http://www.garmin.com/xmlschemas/TrainingCenterDatabasev2.xsd"><Activities><Activity Sport="Other"><Id>2026-04-17T11:38:59.917Z</Id><Notes>SkiErg Intervalltraining</Notes><Lap StartTime="2026-04-17T11:38:59.917Z"><TotalTimeSeconds>19</TotalTimeSeconds><DistanceMeters>46.37590199808757</DistanceMeters><Calories>0</Calories><Intensity>Active</Intensity><TriggerMethod>Manual</TriggerMethod><Track><Trackpoint><Time>2026-04-17T11:38:59.917Z</Time><DistanceMeters>0.0</DistanceMeters><HeartRateBpm><Value>0</Value></HeartRateBpm><Cadence>38</Cadence><Extensions><ext:TPX><ext:Watts>0.0</ext:Watts><ext:Torque>23</ext:Torque></ext:TPX></Extensions></Trackpoint><Trackpoint><Time>2026-04-17T11:39:00.927Z</Time><DistanceMeters>0.6933075230730683</DistanceMeters><HeartRateBpm><Value>0</Value></HeartRateBpm><Cadence>66</Cadence><Extensions><ext:TPX><ext:Watts>11.222222222222221</ext:Watts><ext:Torque>42</ext:Torque></ext:TPX></Extensions></Trackpoint><Trackpoint><Time>2026-04-17T11:39:01.992Z</Time><DistanceMeters>3.207055122010707</DistanceMeters><HeartRateBpm><Value>0</Value></HeartRateBpm><Cadence>56</Cadence><Extensions><ext:TPX><ext:Watts>34.523809523809526</ext:Watts><ext:Torque>23</ext:Torque></ext:TPX></Extensions></Trackpoint><Trackpoint><Time>2026-04-17T11:39:03.062Z</Time><DistanceMeters>5.949640433403358</DistanceMeters><HeartRateBpm><Value>0</Value></HeartRateBpm><Cadence>56</Cadence><Extensions><ext:TPX><ext:Watts>37.666666666666664</ext:Watts><ext:Torque>23</ext:Torque></ext:TPX></Extensions></Trackpoint><Trackpoint><Time>2026-04-17T11:39:04.132Z</Time><DistanceMeters>8.650618887986006</DistanceMeters><HeartRateBpm><Value>0</Value></HeartRateBpm><Cadence>56</Cadence><Extensions><ext:TPX><ext:Watts>37.095238095238095</ext:Watts><ext:Torque>23</ext:Torque></ext:TPX></Extensions></Trackpoint><Trackpoint><Time>2026-04-17T11:39:05.147Z</Time><DistanceMeters>11.318253090373746</DistanceMeters><HeartRateBpm><Value>0</Value></HeartRateBpm><Cadence>59</Cadence><Extensions><ext:TPX><ext:Watts>38.6</ext:Watts><ext:Torque>23</ext:Torque></ext:TPX></Extensions></Trackpoint><Trackpoint><Time>2026-04-17T11:39:06.212Z</Time><DistanceMeters>14.1059124966439</DistanceMeters><HeartRateBpm><Value>0</Value></HeartRateBpm><Cadence>56</Cadence><Extensions><ext:TPX><ext:Watts>38.285714285714285</ext:Watts><ext:Torque>23</ext:Torque></ext:TPX></Extensions></Trackpoint><Trackpoint><Time>2026-04-17T11:39:07.223Z</Time><DistanceMeters>16.73899185185045</DistanceMeters><HeartRateBpm><Value>0</Value></HeartRateBpm><Cadence>59</Cadence><Extensions><ext:TPX><ext:Watts>38.1</ext:Watts><ext:Torque>23</ext:Torque></ext:TPX></Extensions></Trackpoint><Trackpoint><Time>2026-04-17T11:39:08.237Z</Time><DistanceMeters>19.264951180795318</DistanceMeters><HeartRateBpm><Value>0</Value></HeartRateBpm><Cadence>59</Cadence><Extensions><ext:TPX><ext:Watts>36.55</ext:Watts><ext:Torque>23</ext:Torque></ext:TPX></Extensions></Trackpoint><Trackpoint><Time>2026-04-17T11:39:09.252Z</Time><DistanceMeters>21.83583181107573</DistanceMeters><HeartRateBpm><Value>0</Value></HeartRateBpm><Cadence>59</Cadence><Extensions><ext:TPX><ext:Watts>37.2</ext:Watts><ext:Torque>23</ext:Torque></ext:TPX></Extensions></Trackpoint><Trackpoint><Time>2026-04-17T11:39:10.262Z</Time><DistanceMeters>24.493099559309115</DistanceMeters><HeartRateBpm><Value>0</Value></HeartRateBpm><Cadence>59</Cadence><Extensions><ext:TPX><ext:Watts>38.45</ext:Watts><ext:Torque>23</ext:Torque></ext:TPX></Extensions></Trackpoint><Trackpoint><Time>2026-04-17T11:39:11.327Z</Time><DistanceMeters>27.145536680946762</DistanceMeters><HeartRateBpm><Value>0</Value></HeartRateBpm><Cadence>56</Cadence><Extensions><ext:TPX><ext:Watts>36.42857142857143</ext:Watts><ext:Torque>23</ext:Torque></ext:TPX></Extensions></Trackpoint><Trackpoint><Time>2026-04-17T11:39:12.397Z</Time><DistanceMeters>29.82571170712441</DistanceMeters><HeartRateBpm><Value>0</Value></HeartRateBpm><Cadence>56</Cadence><Extensions><ext:TPX><ext:Watts>36.80952380952381</ext:Watts><ext:Torque>23</ext:Torque></ext:TPX></Extensions></Trackpoint><Trackpoint><Time>2026-04-17T11:39:13.412Z</Time><DistanceMeters>32.635020782955024</DistanceMeters><HeartRateBpm><Value>0</Value></HeartRateBpm><Cadence>59</Cadence><Extensions><ext:TPX><ext:Watts>40.65</ext:Watts><ext:Torque>23</ext:Torque></ext:TPX></Extensions></Trackpoint><Trackpoint><Time>2026-04-17T11:39:14.477Z</Time><DistanceMeters>35.43654914149518</DistanceMeters><HeartRateBpm><Value>0</Value></HeartRateBpm><Cadence>56</Cadence><Extensions><ext:TPX><ext:Watts>38.476190476190474</ext:Watts><ext:Torque>23</ext:Torque></ext:TPX></Extensions></Trackpoint><Trackpoint><Time>2026-04-17T11:39:15.492Z</Time><DistanceMeters>38.12837173690975</DistanceMeters><HeartRateBpm><Value>0</Value></HeartRateBpm><Cadence>59</Cadence><Extensions><ext:TPX><ext:Watts>38.95</ext:Watts><ext:Torque>23</ext:Torque></ext:TPX></Extensions></Trackpoint><Trackpoint><Time>2026-04-17T11:39:16.507Z</Time><DistanceMeters>40.85820466422363</DistanceMeters><HeartRateBpm><Value>0</Value></HeartRateBpm><Cadence>59</Cadence><Extensions><ext:TPX><ext:Watts>39.5</ext:Watts><ext:Torque>23</ext:Torque></ext:TPX></Extensions></Trackpoint><Trackpoint><Time>2026-04-17T11:39:17.523Z</Time><DistanceMeters>43.6225924387187</DistanceMeters><HeartRateBpm><Value>0</Value></HeartRateBpm><Cadence>59</Cadence><Extensions><ext:TPX><ext:Watts>40.0</ext:Watts><ext:Torque>23</ext:Torque></ext:TPX></Extensions></Trackpoint><Trackpoint><Time>2026-04-17T11:39:19.692Z</Time><DistanceMeters>46.37590199808757</DistanceMeters><HeartRateBpm><Value>0</Value></HeartRateBpm><Cadence>28</Cadence><Extensions><ext:TPX><ext:Watts>18.906976744186046</ext:Watts><ext:Torque>23</ext:Torque></ext:TPX></Extensions></Trackpoint></Track></Lap></Activity></Activities></TrainingCenterDatabase>