<?xml version='1.0' encoding='utf-8'?>
<TrainingCenterDatabase xmlns:ext="http://www.garmin.com/xmlschemas/ActivityExtension/v2" xmlns:xsi="http://www.w3.org/2001/XMLSchema-instance" xsi:schemaLocation="http://www.garmin.com/xmlschemas/TrainingCenterDatabase/v2 http://www.garmin.com/xmlschemas/TrainingCenterDatabasev2.xsd"><Activities><Activity Sport="Other"><Id>2025-08-23T11:13:34.989Z</Id><Notes>SkiErg Intervalltraining</Notes><Lap StartTime="2025-08-23T11:13:34.989Z"><TotalTimeSeconds>9</TotalTimeSeconds><DistanceMeters>0</DistanceMeters><Calories>0</Calories><Intensity>Active</Intensity><TriggerMethod>Manual</TriggerMethod><Track><Trackpoint><Time>2025-08-23T11:13:34.989Z</Time><DistanceMeters>0.4227141077293982</DistanceMeters><HeartRateBpm><Value>0</Value></HeartRateBpm><Cadence>24</Cadence><Extensions><ext:TPX><ext:Watts>4.976190476190476</ext:Watts><ext:Torque>39</ext:Torque></ext:TPX></Extensions></Trackpoint><Trackpoint><Time>2025-08-23T11:13:36.308Z</Time><DistanceMeters>3.0401216181032695</DistanceMeters><HeartRateBpm><Value>0</Value></HeartRateBpm><Cadence>22</Cadence><Extensions><ext:TPX><ext:Watts>28.886363636363637</ext:Watts><ext:Torque>44</ext:Torque></ext:TPX></Extensions></Trackpoint><Trackpoint><Time>2025-08-23T11:13:37.358Z</Time><DistanceMeters>7.056278217552965</DistanceMeters><HeartRateBpm><Value>0</Value></HeartRateBpm><Cadence>28</Cadence><Extensions><ext:TPX><ext:Watts>56.142857142857146</ext:Watts><ext:Torque>43</ext:Torque></ext:TPX></Extensions></Trackpoint><Trackpoint><Time>2025-08-23T11:13:38.379Z</Time><DistanceMeters>11.601256940913974</DistanceMeters><HeartRateBpm><Value>0</Value></HeartRateBpm><Cadence>30</Cadence><Extensions><ext:TPX><ext:Watts>65.76470588235294</ext:Watts><ext:Torque>20</ext:Torque></ext:TPX></Extensions></Trackpoint><Trackpoint><Time>2025-08-23T11:13:39.459Z</Time><DistanceMeters>16.194480570834852</DistanceMeters><HeartRateBpm><Value>0</Value></HeartRateBpm><Cadence>28</Cadence><Extensions><ext:TPX><ext:Watts>63.083333333333336</ext:Watts><ext:Torque>20</ext:Torque></ext:TPX></Extensions></Trackpoint><Trackpoint><Time>2025-08-23T11:13:40.539Z</Time><DistanceMeters>20.876696644488234</DistanceMeters><HeartRateBpm><Value>0</Value></HeartRateBpm><Cadence>28</Cadence><Extensions><ext:TPX><ext:Watts>64.30555555555556</ext:Watts><ext:Torque>20</ext:Torque></ext:TPX></Extensions></Trackpoint><Trackpoint><Time>2025-08-23T11:13:41.649Z</Time><DistanceMeters>25.594972514649935</DistanceMeters><HeartRateBpm><Value>0</Value></HeartRateBpm><Cadence>27</Cadence><Extensions><ext:TPX><ext:Watts>62.486486486486484</ext:Watts><ext:Torque>20</ext:Torque></ext:TPX></Extensions></Trackpoint><Trackpoint><Time>2025-08-23T11:13:42.729Z</Time><DistanceMeters>30.261008143988317</DistanceMeters><HeartRateBpm><Value>0</Value></HeartRateBpm><Cadence>28</Cadence><Extensions><ext:TPX><ext:Watts>64.08333333333333</ext:Watts><ext:Torque>20</ext:Torque></ext:TPX></Extensions></Trackpoint><Trackpoint><Time>2025-08-23T11:13:43.929Z</Time><DistanceMeters>34.83389295540524</DistanceMeters><HeartRateBpm><Value>0</Value></HeartRateBpm><Cadence>25</Cadence><Extensions><ext:TPX><ext:Watts>56.075</ext:Watts><ext:Torque>41</ext:Torque></ext:TPX></Extensions></Trackpoint></Track></Lap></Activity></Activities></TrainingCenterDatabase>