<?xml version='1.0' encoding='utf-8'?>
<TrainingCenterDatabase xmlns:ext="http://www.garmin.com/xmlschemas/ActivityExtension/v2" xmlns:xsi="http://www.w3.org/2001/XMLSchema-instance" xsi:schemaLocation="http://www.garmin.com/xmlschemas/TrainingCenterDatabase/v2 http://www.garmin.com/xmlschemas/TrainingCenterDatabasev2.xsd"><Activities><Activity Sport="Other"><Id>2025-08-22T15:37:45.444655Z</Id><Notes>X-Ski Training</Notes><Lap StartTime="2025-08-22T15:37:45.444655Z"><TotalTimeSeconds>10</TotalTimeSeconds><DistanceMeters>0</DistanceMeters><Calories>0</Calories><Intensity>Active</Intensity><TriggerMethod>Manual</TriggerMethod><Track><Trackpoint><Time>2025-08-22T15:37:45.444655Z</Time><DistanceMeters>0.024507720314832306</DistanceMeters><HeartRateBpm><Value>85</Value></HeartRateBpm><Cadence>60</Cadence><Extensions><ext:TPX><ext:Watts>0.7272727272727273</ext:Watts><ext:Torque>20</ext:Torque></ext:TPX></Extensions></Trackpoint><Trackpoint><Time>2025-08-22T15:37:48.098362Z</Time><DistanceMeters>0.3159703443648557</DistanceMeters><HeartRateBpm><Value>85</Value></HeartRateBpm><Cadence>12</Cadence><Extensions><ext:TPX><ext:Watts>1.6440677966101696</ext:Watts><ext:Torque>20</ext:Torque></ext:TPX></Extensions></Trackpoint><Trackpoint><Time>2025-08-22T15:37:49.313398Z</Time><DistanceMeters>0.43000395191819535</DistanceMeters><HeartRateBpm><Value>85</Value></HeartRateBpm><Cadence>24</Cadence><Extensions><ext:TPX><ext:Watts>1.3703703703703705</ext:Watts><ext:Torque>43</ext:Torque></ext:TPX></Extensions></Trackpoint><Trackpoint><Time>2025-08-22T15:37:50.348416Z</Time><DistanceMeters>1.0871677247718297</DistanceMeters><HeartRateBpm><Value>86</Value></HeartRateBpm><Cadence>29</Cadence><Extensions><ext:TPX><ext:Watts>9.347826086956522</ext:Watts><ext:Torque>39</ext:Torque></ext:TPX></Extensions></Trackpoint><Trackpoint><Time>2025-08-22T15:37:51.248442Z</Time><DistanceMeters>3.2202332838267083</DistanceMeters><HeartRateBpm><Value>86</Value></HeartRateBpm><Cadence>34</Cadence><Extensions><ext:TPX><ext:Watts>35.05</ext:Watts><ext:Torque>35</ext:Torque></ext:TPX></Extensions></Trackpoint><Trackpoint><Time>2025-08-22T15:37:52.103483Z</Time><DistanceMeters>5.418389224136197</DistanceMeters><HeartRateBpm><Value>86</Value></HeartRateBpm><Cadence>35</Cadence><Extensions><ext:TPX><ext:Watts>37.73684210526316</ext:Watts><ext:Torque>37</ext:Torque></ext:TPX></Extensions></Trackpoint><Trackpoint><Time>2025-08-22T15:37:52.958398Z</Time><DistanceMeters>7.515374807360312</DistanceMeters><HeartRateBpm><Value>85</Value></HeartRateBpm><Cadence>35</Cadence><Extensions><ext:TPX><ext:Watts>36.0</ext:Watts><ext:Torque>38</ext:Torque></ext:TPX></Extensions></Trackpoint><Trackpoint><Time>2025-08-22T15:37:53.813419Z</Time><DistanceMeters>10.12434371280435</DistanceMeters><HeartRateBpm><Value>85</Value></HeartRateBpm><Cadence>35</Cadence><Extensions><ext:TPX><ext:Watts>44.78947368421053</ext:Watts><ext:Torque>20</ext:Torque></ext:TPX></Extensions></Trackpoint><Trackpoint><Time>2025-08-22T15:37:54.668370Z</Time><DistanceMeters>12.466590767750585</DistanceMeters><HeartRateBpm><Value>85</Value></HeartRateBpm><Cadence>35</Cadence><Extensions><ext:TPX><ext:Watts>40.21052631578947</ext:Watts><ext:Torque>38</ext:Torque></ext:TPX></Extensions></Trackpoint><Trackpoint><Time>2025-08-22T15:37:55.478435Z</Time><DistanceMeters>14.529816072566103</DistanceMeters><HeartRateBpm><Value>84</Value></HeartRateBpm><Cadence>37</Cadence><Extensions><ext:TPX><ext:Watts>37.44444444444444</ext:Watts><ext:Torque>41</ext:Torque></ext:TPX></Extensions></Trackpoint></Track></Lap></Activity></Activities></TrainingCenterDatabase>